{"type": "FeatureCollection", "features": [ {"type": "Feature", "properties": {"norad_id": 37216, "name": "COSMO-SKYMED 4", "group": "resource", "lat": -68.54206838406189, "lon": -156.9826327314513, "alt_km": 630.6246313774736, "timestamp": "2025-12-27T06:41:30.555421+00:00", "meta": {"OBJECT_NAME": "COSMO-SKYMED 4", "OBJECT_ID": "2010-060A", "EPOCH": "2025-12-26T22:54:21.398112", "MEAN_MOTION": 14.82164757, "ECCENTRICITY": 0.00014168, "INCLINATION": 97.8809, "RA_OF_ASC_NODE": 182.0638, "ARG_OF_PERICENTER": 80.9318, "MEAN_ANOMALY": 279.2055, "EPHEMERIS_TYPE": 0, "CLASSIFICATION_TYPE": "U", "NORAD_CAT_ID": 37216, "ELEMENT_SET_NO": 999, "REV_AT_EPOCH": 81905, "BSTAR": 0.00015459745, "MEAN_MOTION_DOT": 1.179e-05, "MEAN_MOTION_DDOT": 0}, "tle": {"line1": "1 37216U 10060A   25360.95441433  .00001179  00000+0  15460-3 0  9991", "line2": "2 37216  97.8809 182.0638 0001416  80.9318 279.2055 14.82164757819059"}}, "geometry": {"type": "Point", "coordinates": [-156.9826327314513, -68.54206838406189]}}, {"type": "Feature", "properties": {"norad_id": 37387, "name": "RESOURCESAT-2", "group": "resource", "lat": -28.794604033659216, "lon": 69.64009731079105, "alt_km": 822.2595521163439, "timestamp": "2025-12-27T06:41:30.555434+00:00", "meta": {"OBJECT_NAME": "RESOURCESAT-2", "OBJECT_ID": "2011-015A", "EPOCH": "2025-12-26T22:22:57.428832", "MEAN_MOTION": 14.21595435, "ECCENTRICITY": 0.00057377, "INCLINATION": 98.7858, "RA_OF_ASC_NODE": 64.4194, "ARG_OF_PERICENTER": 3.7046, "MEAN_ANOMALY": 356.4173, "EPHEMERIS_TYPE": 0, "CLASSIFICATION_TYPE": "U", "NORAD_CAT_ID": 37387, "ELEMENT_SET_NO": 999, "REV_AT_EPOCH": 76170, "BSTAR": 8.3469935e-05, "MEAN_MOTION_DOT": 1.39e-06, "MEAN_MOTION_DDOT": 0}, "tle": {"line1": "1 37387U 11015A   25360.93260913  .00000139  00000+0  83470-4 0  9993", "line2": "2 37387  98.7858  64.4194 0005737   3.7046 356.4173 14.21595435761704"}}, "geometry": {"type": "Point", "coordinates": [69.64009731079105, -28.794604033659216]}}, {"type": "Feature", "properties": {"norad_id": 37781, "name": "HAIYANG-2A", "group": "resource", "lat": -54.88910025550163, "lon": 15.523427312798695, "alt_km": 975.5576843594617, "timestamp": "2025-12-27T06:41:30.555444+00:00", "meta": {"OBJECT_NAME": "HAIYANG-2A", "OBJECT_ID": "2011-043A", "EPOCH": "2025-12-26T23:59:48.659136", "MEAN_MOTION": 13.78835248, "ECCENTRICITY": 0.00015482, "INCLINATION": 99.3383, "RA_OF_ASC_NODE": 1.7145, "ARG_OF_PERICENTER": 65.4316, "MEAN_ANOMALY": 294.6997, "EPHEMERIS_TYPE": 0, "CLASSIFICATION_TYPE": "U", "NORAD_CAT_ID": 37781, "ELEMENT_SET_NO": 999, "REV_AT_EPOCH": 72295, "BSTAR": -0.0002806412, "MEAN_MOTION_DOT": -3.3e-06, "MEAN_MOTION_DDOT": 0}, "tle": {"line1": "1 37781U 11043A   25360.99986874 -.00000330  00000+0 -28064-3 0  9991", "line2": "2 37781  99.3383   1.7145 0001548  65.4316 294.6997 13.78835248722954"}}, "geometry": {"type": "Point", "coordinates": [15.523427312798695, -54.88910025550163]}}, {"type": "Feature", "properties": {"norad_id": 37791, "name": "RASAT", "group": "resource", "lat": 35.307351710542854, "lon": 84.5575498528874, "alt_km": 650.8733459292771, "timestamp": "2025-12-27T06:41:30.555456+00:00", "meta": {"OBJECT_NAME": "RASAT", "OBJECT_ID": "2011-044D", "EPOCH": "2025-12-26T22:51:12.102624", "MEAN_MOTION": 14.67928354, "ECCENTRICITY": 0.00212155, "INCLINATION": 98.0637, "RA_OF_ASC_NODE": 89.9984, "ARG_OF_PERICENTER": 21.921, "MEAN_ANOMALY": 88.9131, "EPHEMERIS_TYPE": 0, "CLASSIFICATION_TYPE": "U", "NORAD_CAT_ID": 37791, "ELEMENT_SET_NO": 999, "REV_AT_EPOCH": 76791, "BSTAR": 9.8204385e-05, "MEAN_MOTION_DOT": 5.15e-06, "MEAN_MOTION_DDOT": 0}, "tle": {"line1": "1 37791U 11044D   25360.95222341  .00000515  00000+0  98204-4 0  9998", "line2": "2 37791  98.0637  89.9984 0021215  21.9210  88.9131 14.67928354767914"}}, "geometry": {"type": "Point", "coordinates": [84.5575498528874, 35.307351710542854]}}, {"type": "Feature", "properties": {"norad_id": 37841, "name": "SRMSAT", "group": "resource", "lat": -14.23948247605946, "lon": -24.35955516764981, "alt_km": 861.5668474682989, "timestamp": "2025-12-27T06:41:30.555466+00:00", "meta": {"OBJECT_NAME": "SRMSAT", "OBJECT_ID": "2011-058D", "EPOCH": "2025-12-26T18:04:39.351936", "MEAN_MOTION": 14.11516169, "ECCENTRICITY": 0.00119808, "INCLINATION": 19.9732, "RA_OF_ASC_NODE": 23.141, "ARG_OF_PERICENTER": 106.5213, "MEAN_ANOMALY": 50.9064, "EPHEMERIS_TYPE": 0, "CLASSIFICATION_TYPE": "U", "NORAD_CAT_ID": 37841, "ELEMENT_SET_NO": 999, "REV_AT_EPOCH": 73342, "BSTAR": 9.6487334e-05, "MEAN_MOTION_DOT": 4.42e-06, "MEAN_MOTION_DDOT": 0}, "tle": {"line1": "1 37841U 11058D   25360.75323324  .00000442  00000+0  96487-4 0  9990", "line2": "2 37841  19.9732  23.1410 0011980 106.5213  50.9064 14.11516169733422"}}, "geometry": {"type": "Point", "coordinates": [-24.35955516764981, -14.23948247605946]}}, {"type": "Feature", "properties": {"norad_id": 38012, "name": "PLEIADES 1A", "group": "resource", "lat": 61.099843110284084, "lon": 58.7176806716835, "alt_km": 691.1054085404339, "timestamp": "2025-12-27T06:41:30.555477+00:00", "meta": {"OBJECT_NAME": "PLEIADES 1A", "OBJECT_ID": "2011-076F", "EPOCH": "2025-12-26T22:58:02.113824", "MEAN_MOTION": 14.5857426, "ECCENTRICITY": 0.00010586, "INCLINATION": 98.1802, "RA_OF_ASC_NODE": 73.5049, "ARG_OF_PERICENTER": 76.8893, "MEAN_ANOMALY": 96.3247, "EPHEMERIS_TYPE": 0, "CLASSIFICATION_TYPE": "U", "NORAD_CAT_ID": 38012, "ELEMENT_SET_NO": 999, "REV_AT_EPOCH": 74688, "BSTAR": 9.9721826e-05, "MEAN_MOTION_DOT": 4.18e-06, "MEAN_MOTION_DDOT": 0}, "tle": {"line1": "1 38012U 11076F   25360.95696891  .00000418  00000+0  99722-4 0  9993", "line2": "2 38012  98.1802  73.5049 0001058  76.8893  96.3247 14.58574260746883"}}, "geometry": {"type": "Point", "coordinates": [58.7176806716835, 61.099843110284084]}}, {"type": "Feature", "properties": {"norad_id": 38038, "name": "ZIYUAN 1-02C (ZY 1-02C)", "group": "resource", "lat": -23.59254309109294, "lon": 70.73689746527326, "alt_km": 773.5252613267103, "timestamp": "2025-12-27T06:41:30.555487+00:00", "meta": {"OBJECT_NAME": "ZIYUAN 1-02C (ZY 1-02C)", "OBJECT_ID": "2011-079A", "EPOCH": "2025-12-26T23:15:19.136736", "MEAN_MOTION": 14.38027816, "ECCENTRICITY": 0.00075868, "INCLINATION": 98.4311, "RA_OF_ASC_NODE": 66.7189, "ARG_OF_PERICENTER": 101.5126, "MEAN_ANOMALY": 71.6469, "EPHEMERIS_TYPE": 0, "CLASSIFICATION_TYPE": "U", "NORAD_CAT_ID": 38038, "ELEMENT_SET_NO": 999, "REV_AT_EPOCH": 73445, "BSTAR": 0.00018853164, "MEAN_MOTION_DOT": 5.28e-06, "MEAN_MOTION_DDOT": 0}, "tle": {"line1": "1 38038U 11079A   25360.96897149  .00000528  00000+0  18853-3 0  9991", "line2": "2 38038  98.4311  66.7189 0007586 101.5126  71.6469 14.38027816734455"}}, "geometry": {"type": "Point", "coordinates": [70.73689746527326, -23.59254309109294]}}, {"type": "Feature", "properties": {"norad_id": 38338, "name": "ARIRANG-3 (KOMPSAT-3)", "group": "resource", "lat": 54.38744608607283, "lon": 147.7892179400982, "alt_km": 685.5418262361009, "timestamp": "2025-12-27T06:41:30.555498+00:00", "meta": {"OBJECT_NAME": "ARIRANG-3 (KOMPSAT-3)", "OBJECT_ID": "2012-025B", "EPOCH": "2025-12-26T23:33:05.801760", "MEAN_MOTION": 14.61731682, "ECCENTRICITY": 0.00046474, "INCLINATION": 98.3343, "RA_OF_ASC_NODE": 315.6796, "ARG_OF_PERICENTER": 286.901, "MEAN_ANOMALY": 73.168, "EPHEMERIS_TYPE": 0, "CLASSIFICATION_TYPE": "U", "NORAD_CAT_ID": 38338, "ELEMENT_SET_NO": 999, "REV_AT_EPOCH": 72618, "BSTAR": 0.00015658112, "MEAN_MOTION_DOT": 7.32e-06, "MEAN_MOTION_DDOT": 0}, "tle": {"line1": "1 38338U 12025B   25360.98131715  .00000732  00000+0  15658-3 0  9995", "line2": "2 38338  98.3343 315.6796 0004647 286.9010  73.1680 14.61731682726189"}}, "geometry": {"type": "Point", "coordinates": [147.7892179400982, 54.38744608607283]}}, {"type": "Feature", "properties": {"norad_id": 38709, "name": "EXACTVIEW-1 (ADS-1B)", "group": "resource", "lat": -0.8587125000175102, "lon": 110.10965092553054, "alt_km": 807.0516629199255, "timestamp": "2025-12-27T06:41:30.555508+00:00", "meta": {"OBJECT_NAME": "EXACTVIEW-1 (ADS-1B)", "OBJECT_ID": "2012-039C", "EPOCH": "2025-12-26T22:16:10.543584", "MEAN_MOTION": 14.24913804, "ECCENTRICITY": 0.00100592, "INCLINATION": 98.964, "RA_OF_ASC_NODE": 109.6159, "ARG_OF_PERICENTER": 311.3293, "MEAN_ANOMALY": 48.7019, "EPHEMERIS_TYPE": 0, "CLASSIFICATION_TYPE": "U", "NORAD_CAT_ID": 38709, "ELEMENT_SET_NO": 999, "REV_AT_EPOCH": 69817, "BSTAR": 0.00010116779, "MEAN_MOTION_DOT": 1.9e-06, "MEAN_MOTION_DDOT": 0}, "tle": {"line1": "1 38709U 12039C   25360.92789981  .00000190  00000+0  10117-3 0  9993", "line2": "2 38709  98.9640 109.6159 0010059 311.3293  48.7019 14.24913804698179"}}, "geometry": {"type": "Point", "coordinates": [110.10965092553054, -0.8587125000175102]}}, {"type": "Feature", "properties": {"norad_id": 38755, "name": "SPOT 6", "group": "resource", "lat": -14.672840174598731, "lon": 67.94510531748564, "alt_km": 702.5979066622667, "timestamp": "2025-12-27T06:41:30.555518+00:00", "meta": {"OBJECT_NAME": "SPOT 6", "OBJECT_ID": "2012-047A", "EPOCH": "2025-12-26T22:31:38.521056", "MEAN_MOTION": 14.58544122, "ECCENTRICITY": 0.00012269, "INCLINATION": 98.1549, "RA_OF_ASC_NODE": 65.4596, "ARG_OF_PERICENTER": 78.9497, "MEAN_ANOMALY": 281.184, "EPHEMERIS_TYPE": 0, "CLASSIFICATION_TYPE": "U", "NORAD_CAT_ID": 38755, "ELEMENT_SET_NO": 999, "REV_AT_EPOCH": 70794, "BSTAR": 5.7845524e-05, "MEAN_MOTION_DOT": 2.24e-06, "MEAN_MOTION_DDOT": 0}, "tle": {"line1": "1 38755U 12047A   25360.93864029  .00000224  00000+0  57846-4 0  9990", "line2": "2 38755  98.1549  65.4596 0001226  78.9497 281.1840 14.58544122707943"}}, "geometry": {"type": "Point", "coordinates": [67.94510531748564, -14.672840174598731]}}]}